{"type": "FeatureCollection", "features": [ {"type": "Feature", "properties": {"norad_id": 66373, "name": "STARLINK-35809", "group": "last-30-days", "lat": 7.252966673873732, "lon": 139.01140249502427, "alt_km": 345.7684015206587, "timestamp": "2025-12-02T17:49:10.798546+00:00", "meta": {"OBJECT_NAME": "STARLINK-35809", "OBJECT_ID": "2025-254AB", "EPOCH": "2025-12-02T11:00:11.073600", "MEAN_MOTION": 15.74285317, "ECCENTRICITY": 0.0001241, "INCLINATION": 53.1569, "RA_OF_ASC_NODE": 325.8977, "ARG_OF_PERICENTER": 110.6055, "MEAN_ANOMALY": 249.5098, "EPHEMERIS_TYPE": 0, "CLASSIFICATION_TYPE": "U", "NORAD_CAT_ID": 66373, "ELEMENT_SET_NO": 999, "REV_AT_EPOCH": 406, "BSTAR": 0.0016398, "MEAN_MOTION_DOT": 0.00247746, "MEAN_MOTION_DDOT": 0}, "tle": {"line1": "1 66373U 25254AB  25336.45846150  .00247746  00000+0  16398-2 0  9993", "line2": "2 66373  53.1569 325.8977 0001241 110.6055 249.5098 15.74285317  4063"}}, "geometry": {"type": "Point", "coordinates": [139.01140249502427, 7.252966673873732]}}, {"type": "Feature", "properties": {"norad_id": 66374, "name": "STARLINK-35831", "group": "last-30-days", "lat": 5.757457299287711, "lon": 140.14773567203912, "alt_km": 346.678732515973, "timestamp": "2025-12-02T17:49:10.798556+00:00", "meta": {"OBJECT_NAME": "STARLINK-35831", "OBJECT_ID": "2025-254AC", "EPOCH": "2025-12-02T10:59:42.040608", "MEAN_MOTION": 15.74262747, "ECCENTRICITY": 0.0001554, "INCLINATION": 53.157, "RA_OF_ASC_NODE": 325.8954, "ARG_OF_PERICENTER": 75.6511, "MEAN_ANOMALY": 284.4681, "EPHEMERIS_TYPE": 0, "CLASSIFICATION_TYPE": "U", "NORAD_CAT_ID": 66374, "ELEMENT_SET_NO": 999, "REV_AT_EPOCH": 406, "BSTAR": 0.0012531, "MEAN_MOTION_DOT": 0.00187629, "MEAN_MOTION_DDOT": 0}, "tle": {"line1": "1 66374U 25254AC  25336.45812547  .00187629  00000+0  12531-2 0  9995", "line2": "2 66374  53.1570 325.8954 0001554  75.6511 284.4681 15.74262747  4063"}}, "geometry": {"type": "Point", "coordinates": [140.14773567203912, 5.757457299287711]}}, {"type": "Feature", "properties": {"norad_id": 66375, "name": "STARLINK-35826", "group": "last-30-days", "lat": 4.211490965797706, "lon": 141.31407307451778, "alt_km": 346.18221361252745, "timestamp": "2025-12-02T17:49:10.798566+00:00", "meta": {"OBJECT_NAME": "STARLINK-35826", "OBJECT_ID": "2025-254AD", "EPOCH": "2025-12-02T10:59:12.712992", "MEAN_MOTION": 15.7427346, "ECCENTRICITY": 0.0001397, "INCLINATION": 53.1567, "RA_OF_ASC_NODE": 325.8929, "ARG_OF_PERICENTER": 117.7092, "MEAN_ANOMALY": 242.407, "EPHEMERIS_TYPE": 0, "CLASSIFICATION_TYPE": "U", "NORAD_CAT_ID": 66375, "ELEMENT_SET_NO": 999, "REV_AT_EPOCH": 406, "BSTAR": 0.0014219, "MEAN_MOTION_DOT": 0.00213757, "MEAN_MOTION_DDOT": 0}, "tle": {"line1": "1 66375U 25254AD  25336.45778603  .00213757  00000+0  14219-2 0  9997", "line2": "2 66375  53.1567 325.8929 0001397 117.7092 242.4070 15.74273460  4069"}}, "geometry": {"type": "Point", "coordinates": [141.31407307451778, 4.211490965797706]}}, {"type": "Feature", "properties": {"norad_id": 66376, "name": "SHIYAN-32 01", "group": "last-30-days", "lat": 2.3344734578673885, "lon": 43.82785061526426, "alt_km": 448.8814563389524, "timestamp": "2025-12-02T17:49:10.798577+00:00", "meta": {"OBJECT_NAME": "SHIYAN-32 01", "OBJECT_ID": "2025-255A", "EPOCH": "2025-12-02T10:50:04.771968", "MEAN_MOTION": 15.42230531, "ECCENTRICITY": 0.0013353, "INCLINATION": 52.9966, "RA_OF_ASC_NODE": 226.9722, "ARG_OF_PERICENTER": 10.3177, "MEAN_ANOMALY": 349.8098, "EPHEMERIS_TYPE": 0, "CLASSIFICATION_TYPE": "U", "NORAD_CAT_ID": 66376, "ELEMENT_SET_NO": 999, "REV_AT_EPOCH": 376, "BSTAR": 0.00056984, "MEAN_MOTION_DOT": 0.00024596, "MEAN_MOTION_DDOT": 0}, "tle": {"line1": "1 66376U 25255A   25336.45144412  .00024596  00000+0  56984-3 0  9991", "line2": "2 66376  52.9966 226.9722 0013353  10.3177 349.8098 15.42230531  3764"}}, "geometry": {"type": "Point", "coordinates": [43.82785061526426, 2.3344734578673885]}}, {"type": "Feature", "properties": {"norad_id": 66377, "name": "CZ-11 DEB", "group": "last-30-days", "lat": -43.694669381564594, "lon": 91.56632116973617, "alt_km": 446.34853438004393, "timestamp": "2025-12-02T17:49:10.798587+00:00", "meta": {"OBJECT_NAME": "CZ-11 DEB", "OBJECT_ID": "2025-255B", "EPOCH": "2025-12-02T07:27:35.402688", "MEAN_MOTION": 15.43429232, "ECCENTRICITY": 0.0013912, "INCLINATION": 52.9966, "RA_OF_ASC_NODE": 227.5182, "ARG_OF_PERICENTER": 7.4818, "MEAN_ANOMALY": 352.6391, "EPHEMERIS_TYPE": 0, "CLASSIFICATION_TYPE": "U", "NORAD_CAT_ID": 66377, "ELEMENT_SET_NO": 999, "REV_AT_EPOCH": 360, "BSTAR": 0.0009775, "MEAN_MOTION_DOT": 0.00044379, "MEAN_MOTION_DDOT": 0}, "tle": {"line1": "1 66377U 25255B   25336.31082642  .00044379  00000+0  97750-3 0  9990", "line2": "2 66377  52.9966 227.5182 0013912   7.4818 352.6391 15.43429232  3602"}}, "geometry": {"type": "Point", "coordinates": [91.56632116973617, -43.694669381564594]}}, {"type": "Feature", "properties": {"norad_id": 66378, "name": "SHIYAN-32 02", "group": "last-30-days", "lat": -52.86574809592607, "lon": 130.24054079651603, "alt_km": 441.06245567226597, "timestamp": "2025-12-02T17:49:10.798598+00:00", "meta": {"OBJECT_NAME": "SHIYAN-32 02", "OBJECT_ID": "2025-255C", "EPOCH": "2025-12-02T10:27:13.609152", "MEAN_MOTION": 15.43954139, "ECCENTRICITY": 0.0012583, "INCLINATION": 52.9978, "RA_OF_ASC_NODE": 226.8746, "ARG_OF_PERICENTER": 8.9715, "MEAN_ANOMALY": 351.1512, "EPHEMERIS_TYPE": 0, "CLASSIFICATION_TYPE": "U", "NORAD_CAT_ID": 66378, "ELEMENT_SET_NO": 999, "REV_AT_EPOCH": 362, "BSTAR": 0.0013391, "MEAN_MOTION_DOT": 0.00062154, "MEAN_MOTION_DDOT": 0}, "tle": {"line1": "1 66378U 25255C   25336.43557418  .00062154  00000+0  13391-2 0  9991", "line2": "2 66378  52.9978 226.8746 0012583   8.9715 351.1512 15.43954139  3629"}}, "geometry": {"type": "Point", "coordinates": [130.24054079651603, -52.86574809592607]}}, {"type": "Feature", "properties": {"norad_id": 66379, "name": "SHIYAN-32 03", "group": "last-30-days", "lat": -21.802451337100127, "lon": 63.08841798587574, "alt_km": 451.7569553801286, "timestamp": "2025-12-02T17:49:10.798612+00:00", "meta": {"OBJECT_NAME": "SHIYAN-32 03", "OBJECT_ID": "2025-255D", "EPOCH": "2025-12-02T10:42:12.703968", "MEAN_MOTION": 15.42586186, "ECCENTRICITY": 0.0015379, "INCLINATION": 52.9972, "RA_OF_ASC_NODE": 226.9389, "ARG_OF_PERICENTER": 11.2025, "MEAN_ANOMALY": 348.9318, "EPHEMERIS_TYPE": 0, "CLASSIFICATION_TYPE": "U", "NORAD_CAT_ID": 66379, "ELEMENT_SET_NO": 999, "REV_AT_EPOCH": 364, "BSTAR": 0.00052998, "MEAN_MOTION_DOT": 0.00023142, "MEAN_MOTION_DDOT": 0}, "tle": {"line1": "1 66379U 25255D   25336.44598037  .00023142  00000+0  52998-3 0  9996", "line2": "2 66379  52.9972 226.9389 0015379  11.2025 348.9318 15.42586186  3647"}}, "geometry": {"type": "Point", "coordinates": [63.08841798587574, -21.802451337100127]}}, {"type": "Feature", "properties": {"norad_id": 66380, "name": "STARLINK-35139", "group": "last-30-days", "lat": 16.217235346189103, "lon": 119.16606879606515, "alt_km": 445.5936177510084, "timestamp": "2025-12-02T17:49:10.798625+00:00", "meta": {"OBJECT_NAME": "STARLINK-35139", "OBJECT_ID": "2025-257A", "EPOCH": "2025-12-02T12:00:05.998752", "MEAN_MOTION": 15.395874, "ECCENTRICITY": 9.62e-05, "INCLINATION": 53.1585, "RA_OF_ASC_NODE": 312.9043, "ARG_OF_PERICENTER": 91.4453, "MEAN_ANOMALY": 163.6609, "EPHEMERIS_TYPE": 0, "CLASSIFICATION_TYPE": "U", "NORAD_CAT_ID": 66380, "ELEMENT_SET_NO": 999, "REV_AT_EPOCH": 479, "BSTAR": 0.00078761, "MEAN_MOTION_DOT": 0.00031199, "MEAN_MOTION_DDOT": 0}, "tle": {"line1": "1 66380U 25257A   25336.50006943  .00031199  00000+0  78761-3 0  9994", "line2": "2 66380  53.1585 312.9043 0000962  91.4453 163.6609 15.39587400  4790"}}, "geometry": {"type": "Point", "coordinates": [119.16606879606515, 16.217235346189103]}}, {"type": "Feature", "properties": {"norad_id": 66381, "name": "STARLINK-35158", "group": "last-30-days", "lat": 14.776444783393499, "lon": 120.35120764171684, "alt_km": 445.7387326750677, "timestamp": "2025-12-02T17:49:10.798635+00:00", "meta": {"OBJECT_NAME": "STARLINK-35158", "OBJECT_ID": "2025-257B", "EPOCH": "2025-12-02T12:00:05.998752", "MEAN_MOTION": 15.39584804, "ECCENTRICITY": 0.0001233, "INCLINATION": 53.1584, "RA_OF_ASC_NODE": 312.9001, "ARG_OF_PERICENTER": 94.1436, "MEAN_ANOMALY": 162.8018, "EPHEMERIS_TYPE": 0, "CLASSIFICATION_TYPE": "U", "NORAD_CAT_ID": 66381, "ELEMENT_SET_NO": 999, "REV_AT_EPOCH": 485, "BSTAR": 0.00078924, "MEAN_MOTION_DOT": 0.00031262, "MEAN_MOTION_DDOT": 0}, "tle": {"line1": "1 66381U 25257B   25336.50006943  .00031262  00000+0  78924-3 0  9997", "line2": "2 66381  53.1584 312.9001 0001233  94.1436 162.8018 15.39584804  4854"}}, "geometry": {"type": "Point", "coordinates": [120.35120764171684, 14.776444783393499]}}, {"type": "Feature", "properties": {"norad_id": 66382, "name": "STARLINK-35639", "group": "last-30-days", "lat": -4.179345269248245, "lon": 134.8491565695501, "alt_km": 446.5502749667676, "timestamp": "2025-12-02T17:49:10.798645+00:00", "meta": {"OBJECT_NAME": "STARLINK-35639", "OBJECT_ID": "2025-257C", "EPOCH": "2025-12-02T12:00:05.998752", "MEAN_MOTION": 15.42104335, "ECCENTRICITY": 0.0001335, "INCLINATION": 53.1586, "RA_OF_ASC_NODE": 312.854, "ARG_OF_PERICENTER": 82.926, "MEAN_ANOMALY": 196.3433, "EPHEMERIS_TYPE": 0, "CLASSIFICATION_TYPE": "U", "NORAD_CAT_ID": 66382, "ELEMENT_SET_NO": 999, "REV_AT_EPOCH": 485, "BSTAR": -0.079484, "MEAN_MOTION_DOT": -0.03039947, "MEAN_MOTION_DDOT": 0}, "tle": {"line1": "1 66382U 25257C   25336.50006943 -.03039947  00000+0 -79484-1 0  9991", "line2": "2 66382  53.1586 312.8540 0001335  82.9260 196.3433 15.42104335  4851"}}, "geometry": {"type": "Point", "coordinates": [134.8491565695501, -4.179345269248245]}}]}